# From MPC106342
C/1995 O1 (Hale-Bopp),e,89.1148,283.0961,130.4590,177.8599,0.0004155,0.99496221,0.0000,03/29.7440/1997,2000,g -2.0,4.0
# From NK 1615
P/1996 R2 (Lagerkvist),e,2.6006,40.0154,333.3380,3.774876,0.1343848,0.31434565,132.3600,10/24.0/2021,2000,g 11.5,4.0
# From MPC 30063
P/1997 B1 (Kobayashi),e,12.3395,328.8814,183.3255,8.579268,0.0392219,0.76033661,353.8920,10/24.0/2021,2000,g 15.0,2.0
# From MPC 75703
P/1998 VS24 (LINEAR),e,5.0264,159.0380,244.6052,4.527434,0.1023119,0.24252977,140.6296,10/24.0/2021,2000,g 13.0,2.0
# From NK 731
P/1999 RO28 (LONEOS),e,7.5673,137.8856,231.2657,3.426648,0.1553817,0.67234677,132.1670,10/24.0/2021,2000,g 20.0,2.0
# From MPC 75704
P/1999 XN120 (Catalina),e,5.0296,285.2964,161.7859,4.178996,0.1153709,0.21023087,184.3438,10/24.0/2021,2000,g 13.5,2.0
# From NK 744
P/2000 R2 (LINEAR),e,11.6870,160.2857,176.5546,3.466950,0.1526802,0.53161334,131.2101,10/24.0/2021,2000,g 18.0,4.0
# From MPC 43019
P/2001 H5 (NEAT),e,8.3668,328.6830,224.8272,6.097428,0.0654612,0.59829431,143.9318,10/24.0/2021,2000,g 12.0,4.0
# From MPC 75704
P/2001 Q6 (NEAT),e,56.9105,22.1694,42.9280,7.954913,0.0439290,0.82307293,322.3239,10/24.0/2021,2000,g 13.5,4.0
# From MPC 47727
P/2002 EJ57 (LINEAR),e,4.9763,330.3251,167.3400,6.468572,0.0599089,0.59231668,73.3440,10/24.0/2021,2000,g 12.5,4.0
# From MPC109588
P/2002 T6 (NEAT-LINEAR),e,10.8403,206.1999,219.6628,7.694037,0.0461820,0.56108035,313.7434,10/24.0/2021,2000,g 10.5,4.0
# From MPC 75007
C/2002 VQ94 (LINEAR),e,70.6345,35.0808,100.0910,184.7085,0.0003926,0.96304676,2.2570,10/24.0/2021,2000,g  9.5,2.0
# From MPC 50354
P/2003 F2 (NEAT),e,11.6072,359.0183,192.1746,6.501745,0.0594510,0.54209507,42.2876,10/24.0/2021,2000,g 16.5,2.0
# From MPC 50139
P/2003 QX29 (NEAT),e,11.3906,264.5545,37.5453,8.024266,0.0433607,0.47293733,300.0902,10/24.0/2021,2000,g  8.5,4.0
# From MPC105235
P/2003 T12 (SOHO),e,11.0210,174.5804,219.7490,2.585834,0.2370299,0.76986293,126.8223,10/24.0/2021,2000,g 17.0,4.0
# From MPC 82312
P/2004 A1 (LONEOS),e,10.5517,124.8501,21.2316,7.963858,0.0438550,0.30939608,276.0379,10/24.0/2021,2000,g  6.5,4.0
# From MPC 54558
P/2004 DO29 (Spacewatch-LINEAR),e,14.5325,147.3716,40.6310,7.287720,0.0500976,0.44109718,312.1847,10/24.0/2021,2000,g 13.5,2.0
# From MPC 54823
P/2004 FY140 (LINEAR),e,2.1348,326.7642,242.3364,4.904322,0.0907477,0.16806355,207.4856,10/24.0/2021,2000,g 12.5,2.0
# From MPC 53304
P/2004 R3 (LINEAR-NEAT),e,12.7916,305.4235,37.9110,4.782885,0.0942257,0.25834472,2.9515,10/24.0/2021,2000,g 14.5,4.0
# From MPC 55521
P/2004 V3 (Siding Spring),e,50.4428,356.1276,322.3899,7.137911,0.0516830,0.44627270,320.7509,10/24.0/2021,2000,g 11.5,4.0
# From MPC 75705
P/2004 V5 (LINEAR-Hill),e,19.3405,47.7893,87.6581,7.982124,0.0437045,0.44376688,267.1955,10/24.0/2021,2000,g  8.0,4.0
# From MPC 54164
P/2005 E1 (Tubbiolo),e,4.2638,335.5676,194.0103,7.042778,0.0527337,0.37517363,322.8090,10/24.0/2021,2000,g 10.0,4.0
# From MPC 54823
P/2005 GF8 (LONEOS),e,1.1875,314.6727,284.6136,5.817936,0.0702345,0.51717252,53.2088,10/24.0/2021,2000,g 11.5,4.0
# From MPC 79019
P/2005 J1 (McNaught),e,31.7558,268.8175,338.9597,3.570854,0.1460649,0.56943191,161.7963,10/24.0/2021,2000,g 16.5,4.0
# From MPC 74246
P/2005 L1 (McNaught),e,7.7385,138.2482,149.7415,3.977097,0.1242667,0.20982447,358.7813,10/24.0/2021,2000,g  9.5,4.0
# From MPC 75706
P/2005 S2 (Skiff),e,3.1357,161.2165,229.2033,8.012547,0.0434558,0.19777672,245.2494,10/24.0/2021,2000,g  7.5,4.0
# From MPC 75706
P/2005 SB216 (LONEOS),e,24.0945,1.1659,83.3287,7.135440,0.0517098,0.46394943,280.0329,10/24.0/2021,2000,g 12.0,2.0
# From MPC 55717
P/2005 T2 (Christensen),e,8.2910,260.1606,58.8642,3.847405,0.1306027,0.41632962,73.6003,10/24.0/2021,2000,g 14.5,4.0
# From MPC 73461
P/2005 T3 (Read),e,6.2236,27.7048,6.7401,7.584767,0.0471836,0.17471822,277.0545,10/24.0/2021,2000,g  9.0,4.0
# From MPC 73461
P/2005 T4 (SWAN),e,160.2316,25.8099,41.7162,9.361141,0.0344121,0.92970852,201.8612,10/24.0/2021,2000,g 15.0,4.0
# From MPC 75706
P/2005 T5 (Broughton),e,21.3665,57.0001,304.6001,7.287430,0.0501005,0.55248409,293.4089,10/24.0/2021,2000,g 11.0,4.0
# From MPC 75706
P/2005 Y2 (McNaught),e,19.0478,94.3326,193.8370,6.368013,0.0613336,0.46969364,22.7018,10/24.0/2021,2000,g  9.0,4.0
# From MPC 56954
P/2006 F4 (Spacewatch),e,12.4351,183.8231,30.8383,3.518934,0.1493095,0.34072872,121.4691,10/24.0/2021,2000,g 15.0,4.0
# From MPC 75707
P/2006 HR30 (Siding Spring),e,31.8345,309.8911,117.3030,7.810853,0.0451499,0.84252786,245.1494,10/24.0/2021,2000,g 11.0,4.0
# From MPC 75707
P/2007 A2 (Christensen),e,26.4876,300.9089,186.7173,6.330710,0.0618765,0.55792580,335.1786,10/24.0/2021,2000,g 13.5,4.0
# From MPC 75707
P/2007 C2 (Catalina),e,8.6250,275.4460,180.0928,6.993140,0.0532961,0.47128404,274.0266,10/24.0/2021,2000,g 10.0,4.0
# From MPC 84315
C/2007 D1 (LINEAR),e,41.5017,171.2255,339.9524,1329,0.0000203,0.99336781,0.0000,06/07.7052/2007,2000,g  3.5,4.0
# From MPC 82314
P/2007 K2 (Gibbs),e,7.6298,188.6388,347.4143,7.268180,0.0502997,0.68297149,264.7163,10/24.0/2021,2000,g 14.0,4.0
# From MPC 60925
P/2007 Q2 (Gilmore),e,10.2026,172.1571,162.7953,5.653784,0.0733154,0.67012900,24.2683,10/24.0/2021,2000,g 16.0,4.0
# From MPC 75708
P/2007 R4 (Garradd),e,20.2095,87.1970,282.5874,5.934234,0.0681800,0.67011917,356.8842,10/24.0/2021,2000,g 14.5,4.0
# From MPC 73462
P/2007 S1 (Zhao),e,5.9641,141.3700,245.4703,3.819632,0.1320298,0.33967754,313.9544,10/24.0/2021,2000,g 13.0,4.0
# From MPC 61994
P/2007 T2 (Kowalski),e,9.7509,3.3759,359.6440,3.046606,0.1853445,0.78552904,220.1478,10/24.0/2021,2000,g 18.5,4.0
# From MPC 75709
P/2008 L2 (Hill),e,25.8657,218.0126,141.2380,6.027921,0.0665967,0.61330553,322.4352,10/24.0/2021,2000,g 12.5,4.0
# From MPC 64114
P/2008 O3 (Boattini),e,32.2915,47.5781,341.1171,8.219496,0.0418250,0.69579445,204.8864,10/24.0/2021,2000,g 13.0,4.0
# From MPC 66204
P/2008 WZ96 (LINEAR),e,7.1117,56.4458,341.9393,3.486877,0.1513732,0.46980401,8.8099,10/24.0/2021,2000,g 13.5,4.0
# From MPC 75710
P/2008 Y3 (McNaught),e,38.7704,262.8165,238.1548,8.047556,0.0431726,0.44545588,202.5391,10/24.0/2021,2000,g  8.5,4.0
# From MPC 75710
P/2009 B1 (Boattini),e,22.2231,297.0864,128.8750,6.737468,0.0563584,0.63506923,263.5261,10/24.0/2021,2000,g 13.0,4.0
# From MPC 66466
C/2009 G1 (STEREO),e,108.6913,120.4632,175.4521,447.1530,0.0001042,0.99745449,0.0000,04/16.6242/2009,2000,g  9.0,4.0
# From MPC 75710
P/2009 O3 (Hill),e,16.2808,183.6937,154.4452,7.768235,0.0455219,0.68787396,206.4486,10/24.0/2021,2000,g 12.5,4.0
# From MPC 68902
P/2009 Q5 (McNaught),e,40.9887,160.2801,209.0440,7.434115,0.0486251,0.60936157,215.3825,10/24.0/2021,2000,g 10.0,4.0
# From MPC112389
P/2009 T2 (La Sagra),e,27.5784,215.8468,216.3588,7.722074,0.0459307,0.76566364,198.3520,10/24.0/2021,2000,g 14.0,4.0
# From MPC105235
P/2009 WX51 (Catalina),e,9.5936,31.6459,118.1503,3.081878,0.1821717,0.74010863,62.2454,10/24.0/2021,2000,g 19.0,2.0
# From MPC 74247
P/2009 Y2 (Kowalski),e,29.9409,262.0288,172.1353,6.550274,0.0587915,0.63622810,250.2627,10/24.0/2021,2000,g 13.0,4.0
# From MPC 75711
P/2010 A3 (Hill),e,14.8280,63.7871,42.1817,6.080538,0.0657342,0.73355129,278.7888,10/24.0/2021,2000,g 14.0,4.0
# From MPC 75008
P/2010 C1 (Scotti),e,9.1281,141.8860,3.5897,7.103994,0.0520535,0.25908646,227.3139,10/24.0/2021,2000,g  9.5,4.0
# From MPC 75008
P/2010 D2 (WISE),e,57.0869,319.8900,120.0029,6.718178,0.0566014,0.45112480,241.8983,10/24.0/2021,2000,g 16.0,4.0
# From MPC 75009
P/2010 E2 (Jarnac),e,15.3900,177.8219,8.3490,8.639779,0.0388106,0.71965785,164.0217,10/24.0/2021,2000,g 14.0,4.0
# From MPC 72851
P/2010 H2 (Vales),e,14.2752,64.1933,128.0711,3.833208,0.1313289,0.19601187,197.8794,10/24.0/2021,2000,g  6.0,4.0
# From MPC 70361
P/2010 H3 (SOHO),e,23.0669,77.0869,26.1587,3.037236,0.1862028,0.98535906,0.0000,02/07.9478/2021,2000,g 20.0,2.0
# From MPC 73463
P/2010 H4 (Scotti),e,2.3181,44.7342,179.4905,6.594088,0.0582066,0.26677909,241.4788,10/24.0/2021,2000,g 10.5,4.0
# From MPC 74637
P/2010 H5 (Scotti),e,14.0604,24.8008,175.0753,7.164890,0.0513913,0.15287323,217.1341,10/24.0/2021,2000,g 13.0,2.0
# From MPC 98558
P/2010 J3 (McMillan),e,13.2814,106.4298,157.6009,8.975210,0.0366553,0.72653099,149.3374,10/24.0/2021,2000,g 11.0,4.0
# From MPC 84315
P/2010 JC81 (WISE),e,38.7772,30.8551,12.4242,8.108336,0.0426881,0.77730496,163.8756,10/24.0/2021,2000,g  9.0,4.0
# From MPC 74248
P/2010 T2 (PANSTARRS),e,7.8909,58.7780,353.1699,5.540018,0.0755853,0.32181105,293.5755,10/24.0/2021,2000,g 11.5,4.0
# From MPC 98558
P/2010 TO20 (LINEAR-Grauer),e,2.4789,43.2915,266.9918,5.831595,0.0699879,0.05527827,332.4183,10/24.0/2021,2000,g  9.0,4.0
# From MPC 82316
P/2010 U1 (Boattini),e,8.2162,280.7002,86.0371,6.507416,0.0593733,0.24871841,254.5033,10/24.0/2021,2000,g  9.5,4.0
# From MPEC 2021-R75
C/2010 U3 (Boattini),e,55.5359,43.0114,88.0450,2372,0.0000085,0.99644062,0.0000,02/25.2580/2019,2000,g  1.0,4.0
# From MPC 79021
P/2010 UH55 (Spacewatch),e,8.0401,232.9309,225.1604,6.653690,0.0574262,0.56338290,221.2002,10/24.0/2021,2000,g 11.0,4.0
# From MPC 75009
P/2010 WK (LINEAR),e,11.4015,11.3305,40.9645,5.761957,0.0712605,0.69013685,288.6132,10/24.0/2021,2000,g 14.5,2.0
# From MPC 84021
P/2011 C2 (Gibbs),e,10.8852,12.1239,160.8025,7.413551,0.0488275,0.26887279,175.2472,10/24.0/2021,2000,g  9.0,4.0
# From MPC 79866
P/2011 FR143 (Lemmon),e,15.9782,190.9504,350.0505,6.860310,0.0548515,0.45052918,213.5738,10/24.0/2021,2000,g 14.0,2.0
# From MPC 82317
P/2011 JB15 (Spacewatch-Boattini),e,19.1477,153.5796,111.0716,7.359666,0.0493647,0.31713939,175.8818,10/24.0/2021,2000,g  9.0,4.0
# From MPC 87913
P/2011 N1 (ASH),e,35.7361,77.5886,330.3430,6.247780,0.0631125,0.54435115,217.3770,10/24.0/2021,2000,g 11.5,4.0
# From MPC 75714
P/2011 NO1 (Elenin),e,15.2472,295.8093,263.7657,5.526533,0.0758621,0.77456561,298.2378,10/24.0/2021,2000,g 15.0,4.0
# From MPC 82318
P/2011 P1 (McNaught),e,5.6608,4.2368,348.9759,7.464112,0.0483322,0.32770594,198.5758,10/24.0/2021,2000,g  9.0,4.0
# From MPC 77806
